XW-3 (CAS-9)            
1 50466U 21131B   24190.18425522  .00000796  00000+0  26823-3 0  9999
2 50466  98.5287 275.1563 0005261  71.9585 288.2176 14.39704469133020
TEVEL-3                 
1 50988U 22002E   24189.67807540  .00287280  00000+0  16423-2 0  9991
2 50988  97.3712 266.7506 0006771 237.1198 122.9417 15.78048968138278
TEVEL-8                 
1 50989U 22002F   24189.72358386  .00275503  00000+0  15997-2 0  9997
2 50989  97.3742 266.8895 0006810 237.9097 122.1508 15.77728046138278
TEVEL-5                 
1 50998U 22002Q   24189.64288125  .00652749  17797-3  17840-2 0  9996
2 50998  97.3676 268.5527 0010639 248.2566 111.7577 15.93988650138395
TEVEL-6                 
1 50999U 22002R   24190.16455803  .00606200  15144-3  16912-2 0  9999
2 50999  97.3658 269.0503 0010750 246.6983 113.3160 15.93589979138471
TEVEL-1                 
1 51013U 22002AF  24190.03189754  .00265383  00000+0  15397-2 0  9992
2 51013  97.3714 266.9633 0007096 235.6683 124.3912 15.77770606138328
TEVEL-7                 
1 51062U 22002CG  24189.89484268  .00283062  00000+0  16045-2 0  9991
2 51062  97.3732 267.0563 0007081 236.2030 123.8563 15.78248764138303
TEVEL-4                 
1 51063U 22002CH  24190.20765143  .00269220  00000+0  15992-2 0  9993
2 51063  97.3740 267.2413 0007002 235.2670 124.7937 15.77227349138345
TEVEL-2                 
1 51069U 22002CP  24189.92834440  .00280844  00000+0  15941-2 0  9992
2 51069  97.3707 266.9859 0006877 235.8448 124.2167 15.78225650138313
GREENCUBE               
1 53106U 22080B   24179.39627855 -.00000003  00000+0  00000+0 0  9997
2 53106  70.1314 188.9743 0007566 105.0209 255.1288  6.42557731 45925
KAI-1 (RS26S)           
1 53378U 22096J   24189.72945297  .00172195  00000+0  10159-2 0  9996
2 53378  97.3933 109.9604 0006334 128.0490 232.1348 15.77647464107463
CAS-5A (FO-118)         
1 54684U 22167C   24190.05249557  .00025454  00000+0  83806-3 0  9995
2 54684  97.6077 335.3939 0010055  77.1287 283.1076 15.31432561 87499
STRATOSAT-TK 1 (RS52S)  
1 57167U 23091B   24190.05658851  .00013097  00000+0  74094-3 0  9991
2 57167  97.6096 243.0777 0015677  53.9486 306.3195 15.13085753 56710
UMKA 1 (RS40S)          
1 57172U 23091G   24189.90583691  .00005977  00000+0  39285-3 0  9999
2 57172  97.6096 241.7438 0017630  55.0964 305.1918 15.07847216 56612
CUBESX-HSE 3 (RS42S)    
1 57178U 23091N   24190.04106724  .00008185  00000+0  51508-3 0  9996
2 57178  97.6132 242.3578 0017827  49.1260 311.1510 15.09325366 56650
MONITOR-4 (RS57S)       
1 57182U 23091S   24190.03531865  .00007926  00000+0  50572-3 0  9990
2 57182  97.6121 242.1546 0018225  50.0739 310.2088 15.08826019 56640
MONITOR-2 (RS39S)       
1 57184U 23091U   24190.13386201  .00004728  00000+0  31128-3 0  9998
2 57184  97.6134 242.3571 0015095  45.7433 314.5031 15.07922906 56668
SVYATOBOR 1 (RS60S)     
1 57187U 23091X   24190.13454445  .00006485  00000+0  40713-3 0  9999
2 57187  97.6134 242.8232 0014324  43.3030 316.9322 15.09545371 56692
VIZARD-METEO (RS38S)    
1 57189U 23091Z   24190.00421509  .00008352  00000+0  50263-3 0  9998
2 57189  97.6128 243.1127 0013032  41.8300 318.3924 15.11011254 56709
NANOZOND 1 (RS49S)      
1 57190U 23091AA  24190.03627638  .00013055  00000+0  72682-3 0  9999
2 57190  97.6098 243.7119 0011142  46.5213 313.6943 15.13714615 56756
POLYTECH-UNIVERSE 3 (R*)
1 57191U 23091AB  24190.00654088  .00005054  00000+0  33217-3 0  9997
2 57191  97.6102 241.9048 0020821  60.4929 299.8372 15.07868664 56632
UTMN 2 (RS27S)          
1 57203U 23091AP  24190.13449686  .00007409  00000+0  45273-3 0  9992
2 57203  97.6126 243.0910 0013439  41.6214 318.6035 15.10495846 56715
ARCCUBE 1 (RS25S)       
1 57205U 23091AR  24190.13022866  .00013797  00000+0  74221-3 0  9993
2 57205  97.6069 243.9418 0011278  47.8919 312.3270 15.14923980 56782
KUZGTU 1 (RS47S)        
1 57217U 23091AV  24189.91908228  .00007075  00000+0  44770-3 0  9993
2 57217  97.6110 242.0914 0017913  51.1182 309.1641 15.09171962 56634
HADES-D (SO-121)        
1 58567U 23174CY  24190.16993259  .00048195  00000+0  15475-2 0  9998
2 58567  97.4532 265.9937 0013175 155.8026 204.3837 15.32059702 36996
